NORAD_CAT_ID,OBJECT_NAME,OBJECT_TYPE,EPOCH,MEAN_MOTION,ECCENTRICITY,INCLINATION,RA_OF_ASC_NODE,ARG_OF_PERICENTER,MEAN_ANOMALY,BSTAR,MEAN_MOTION_DOT,MEAN_MOTION_DDOT,TLE_LINE0,TLE_LINE1,TLE_LINE2,SEMIMAJOR_AXIS,PERIOD,APOGEE,PERIGEE,DECAYED
53836.0,STARLINK-4778,PAYLOAD,2024-06-12 13:06:56,15.08834573,0.0001073,53.2173,265.5944,102.7115,257.3997,6.8466e-05,8.02e-06,0.0,0 STARLINK-4778,1 53836U 22114U   24164.54648853  .00000802  00000-0  68466-4 0  9999,2 53836  53.2173 265.5944 0001073 102.7115 257.3997 15.08834573 97081,6917.897,95.438,540.504,539.02,0.0
53836.0,STARLINK-4778,PAYLOAD,2024-06-13 12:57:43,15.08848389,0.0001033,53.2158,261.1331,94.3456,265.7654,0.00056759,8.759e-05,0.0,0 STARLINK-4778,1 53836U 22114U   24165.54008843  .00008759  00000-0  56759-3 0  9999,2 53836  53.2158 261.1331 0001033  94.3456 265.7654 15.08848389 97236,6917.855,95.437,540.434,539.005,0.0
53836.0,STARLINK-4778,PAYLOAD,2024-06-14 12:48:30,15.08842828,0.0001091,53.2172,256.6715,99.7806,260.3309,0.0001325,1.822e-05,0.0,0 STARLINK-4778,1 53836U 22114U   24166.53368873  .00001822  00000-0  13250-3 0  9994,2 53836  53.2172 256.6715 0001091  99.7806 260.3309 15.08842828 97385,6917.872,95.437,540.491,538.982,0.0
53836.0,STARLINK-4778,PAYLOAD,2024-06-15 12:39:17,15.08849641,0.0001065,53.2182,252.2151,96.8313,263.2801,0.00011582,1.556e-05,0.0,0 STARLINK-4778,1 53836U 22114U   24167.52728356  .00001556  00000-0  11582-3 0  9990,2 53836  53.2182 252.2151 0001065  96.8313 263.2801 15.08849641 97530,6917.851,95.437,540.453,538.979,0.0
53836.0,STARLINK-4778,PAYLOAD,2024-06-15 22:11:35,15.08848789,0.0001016,53.2176,250.431,95.5428,264.568,6.2493e-05,7.07e-06,0.0,0 STARLINK-4778,1 53836U 22114U   24167.92472214  .00000707  00000-0  62493-4 0  9998,2 53836  53.2176 250.4310 0001016  95.5428 264.5680 15.08848789 97596,6917.854,95.437,540.421,539.016,0.0
53836.0,STARLINK-4778,PAYLOAD,2024-06-16 12:30:04,15.08835087,0.0001213,53.2199,247.7574,106.6589,253.4536,0.00011427,1.531e-05,0.0,0 STARLINK-4778,1 53836U 22114U   24168.52089097  .00001531  00000-0  11427-3 0  9994,2 53836  53.2199 247.7574 0001213 106.6589 253.4536 15.08835087 97687,6917.895,95.438,540.6,538.921,0.0
53836.0,STARLINK-4778,PAYLOAD,2024-06-16 22:02:23,15.08836516,0.0001236,53.2191,245.9733,109.1241,250.9885,-9.9244e-06,-4.46e-06,0.0,0 STARLINK-4778,1 53836U 22114U   24168.91833288 -.00000446  00000-0 -99244-5 0  9997,2 53836  53.2191 245.9733 0001236 109.1241 250.9885 15.08836516 97748,6917.891,95.438,540.611,538.901,0.0
53836.0,STARLINK-4778,PAYLOAD,2024-06-17 13:56:15,15.08838005,0.0001134,53.2181,242.9975,97.6141,262.498,-2.1684e-05,-6.33e-06,0.0,0 STARLINK-4778,1 53836U 22114U   24169.58073420 -.00000633  00000-0 -21684-4 0  9995,2 53836  53.2181 242.9975 0001134  97.6141 262.4980 15.08838005 97300,6917.886,95.438,540.536,538.967,0.0
53836.0,STARLINK-4778,PAYLOAD,2024-06-17 21:53:10,15.08839656,0.0001115,53.2179,241.5105,94.2053,265.9067,7.1272e-06,-1.74e-06,0.0,0 STARLINK-4778,1 53836U 22114U   24169.91193281 -.00000174  00000-0  71272-5 0  9998,2 53836  53.2179 241.5105 0001115  94.2053 265.9067 15.08839656 97892,6917.881,95.438,540.518,538.975,0.0
53836.0,STARLINK-4778,PAYLOAD,2024-06-18 12:11:38,15.08842358,0.0001138,53.2174,238.8335,91.6577,268.4545,8.9192e-05,1.132e-05,0.0,0 STARLINK-4778,1 53836U 22114U   24170.50808954  .00001132  00000-0  89192-4 0  9998,2 53836  53.2174 238.8335 0001138  91.6577 268.4545 15.08842358 97980,6917.873,95.437,540.525,538.951,0.0
53836.0,STARLINK-4778,PAYLOAD,2024-06-18 21:43:57,15.08844608,0.0001266,53.2182,237.0469,86.8059,273.3078,-9.7327e-06,-4.43e-06,0.0,0 STARLINK-4778,1 53836U 22114U   24170.90553079 -.00000443  00000-0 -97327-5 0  9993,2 53836  53.2182 237.0469 0001266  86.8059 273.3078 15.08844608 98045,6917.866,95.437,540.607,538.856,0.0
53836.0,STARLINK-4778,PAYLOAD,2024-06-19 12:02:26,15.08837442,0.0001161,53.2175,234.3703,88.0808,272.0317,6.6705e-05,7.74e-06,0.0,0 STARLINK-4778,1 53836U 22114U   24171.50169590  .00000774  00000-0  66705-4 0  9991,2 53836  53.2175 234.3703 0001161  88.0808 272.0317 15.08837442 97597,6917.888,95.438,540.556,538.95,0.0
53836.0,STARLINK-4778,PAYLOAD,2024-06-19 13:37:49,15.08840615,0.0001181,53.2177,234.0722,89.1799,270.9328,9.1827e-05,1.174e-05,0.0,0 STARLINK-4778,1 53836U 22114U   24171.56793313  .00001174  00000-0  91827-4 0  9991,2 53836  53.2177 234.0722 0001181  89.1799 270.9328 15.08840615 98147,6917.879,95.438,540.561,538.927,0.0
53836.0,STARLINK-4778,PAYLOAD,2024-06-20 13:28:36,15.08844327,0.0001093,53.2166,229.6086,111.0594,249.0515,1.5596e-05,-4e-07,0.0,0 STARLINK-4778,1 53836U 22114U   24172.56153154 -.00000040  00000-0  15596-4 0  9996,2 53836  53.2166 229.6086 0001093 111.0594 249.0515 15.08844327 98293,6917.867,95.437,540.488,538.976,0.0
53836.0,STARLINK-4778,PAYLOAD,2024-06-21 10:08:37,15.08842549,0.00012,53.2166,225.7442,97.5659,262.5469,5.635e-05,6.09e-06,0.0,0 STARLINK-4778,1 53836U 22114U   24173.42265205  .00000609  00000-0  56350-4 0  9996,2 53836  53.2166 225.7442 0001200  97.5659 262.5469 15.08842549 98423,6917.873,95.437,540.568,538.907,0.0
53836.0,STARLINK-4778,PAYLOAD,2024-06-22 13:10:11,15.08837062,0.0001291,53.2169,220.6909,97.6691,262.4448,-2.5406e-06,-3.28e-06,0.0,0 STARLINK-4778,1 53836U 22114U   24174.54873866 -.00000328  00000-0 -25406-5 0  9997,2 53836  53.2169 220.6909 0001291  97.6691 262.4448 15.08837062 98054,6917.889,95.438,540.647,538.861,0.0
53836.0,STARLINK-4778,PAYLOAD,2024-06-23 09:50:11,15.08841061,0.0001285,53.217,216.8265,97.6026,262.5112,5.8131e-05,6.37e-06,0.0,0 STARLINK-4778,1 53836U 22114U   24175.40985454  .00000637  00000-0  58131-4 0  9991,2 53836  53.2170 216.8265 0001285  97.6026 262.5112 15.08841061 98720,6917.877,95.437,540.631,538.853,0.0
53836.0,STARLINK-4778,PAYLOAD,2024-06-24 11:16:22,15.0883212,0.0001334,53.2176,212.0687,99.3907,260.7236,1.4381e-05,-5.9e-07,0.0,0 STARLINK-4778,1 53836U 22114U   24176.46970490 -.00000059  00000-0  14381-4 0  9990,2 53836  53.2176 212.0687 0001334  99.3907 260.7236 15.08832120 98345,6917.904,95.438,540.692,538.847,0.0
53836.0,STARLINK-4778,PAYLOAD,2024-06-25 09:31:46,15.08837846,0.0001326,53.2176,207.9062,95.8626,264.2517,3.2958e-05,2.37e-06,0.0,0 STARLINK-4778,1 53836U 22114U   24177.39706370  .00000237  00000-0  32958-4 0  9994,2 53836  53.2176 207.9062 0001326  95.8626 264.2517 15.08837846 99022,6917.887,95.438,540.669,538.835,0.0
53836.0,STARLINK-4778,PAYLOAD,2024-06-26 09:22:32,15.08846026,0.0001262,53.2172,203.4415,79.3595,280.7539,0.00014249,1.981e-05,0.0,0 STARLINK-4778,1 53836U 22114U   24178.39065527  .00001981  00000-0  14249-3 0  9996,2 53836  53.2172 203.4415 0001262  79.3595 280.7539 15.08846026 98635,6917.862,95.437,540.6,538.854,0.0
53836.0,STARLINK-4778,PAYLOAD,2024-06-27 18:45:37,15.08856392,0.0001361,53.2166,197.2001,88.1992,271.9156,0.00011352,1.52e-05,0.0,0 STARLINK-4778,1 53836U 22114U   24179.78168145  .00001520  00000-0  11352-3 0  9991,2 53836  53.2166 197.2001 0001361  88.1992 271.9156 15.08856392 98845,6917.83,95.437,540.637,538.754,0.0
53836.0,STARLINK-4778,PAYLOAD,2024-06-28 07:28:43,15.08839481,0.0001306,53.216,194.8209,100.763,259.3509,-6.8484e-05,-1.378e-05,0.0,0 STARLINK-4778,1 53836U 22114U   24180.31161526 -.00001378  00000-0 -68484-4 0  9990,2 53836  53.2160 194.8209 0001306 100.7630 259.3509 15.08839481 98922,6917.882,95.438,540.65,538.843,0.0
53836.0,STARLINK-4778,PAYLOAD,2024-06-29 10:30:17,15.08842991,0.0001283,53.215,189.7674,86.4089,273.705,-0.00019982,-3.467e-05,0.0,0 STARLINK-4778,1 53836U 22114U   24181.43769988 -.00003467  00000-0 -19982-3 0  9999,2 53836  53.2150 189.7674 0001283  86.4089 273.7050 15.08842991 99092,6917.871,95.437,540.624,538.849,0.0
53836.0,STARLINK-4778,PAYLOAD,2024-06-30 05:34:55,15.08827284,0.0001315,53.2151,186.199,92.0451,268.0692,0.00010312,1.353e-05,0.0,0 STARLINK-4778,1 53836U 22114U   24182.23258586  .00001353  00000-0  10312-3 0  9993,2 53836  53.2151 186.1990 0001315  92.0451 268.0692 15.08827284 99218,6917.919,95.438,540.694,538.875,0.0
53836.0,STARLINK-4778,PAYLOAD,2024-06-30 07:10:18,15.08828388,0.0001321,53.2153,185.9012,95.0412,265.0731,0.00010718,1.418e-05,0.0,0 STARLINK-4778,1 53836U 22114U   24182.29882553  .00001418  00000-0  10718-3 0  9998,2 53836  53.2153 185.9012 0001321  95.0412 265.0731 15.08828388 99766,6917.916,95.438,540.695,538.867,0.0
53836.0,STARLINK-4778,PAYLOAD,2024-06-30 16:42:37,15.08832022,0.0001376,53.2156,184.1172,96.2773,263.8376,0.00014835,2.073e-05,0.0,0 STARLINK-4778,1 53836U 22114U   24182.69626528  .00002073  00000-0  14835-3 0  9992,2 53836  53.2156 184.1172 0001376  96.2773 263.8376 15.08832022 99828,6917.905,95.438,540.722,538.818,0.0
53836.0,STARLINK-4778,PAYLOAD,2024-07-01 05:25:42,15.08836202,0.0001346,53.2159,181.7379,95.3186,264.796,0.00016956,2.411e-05,0.0,0 STARLINK-4778,1 53836U 22114U   24183.22618576  .00002411  00000-0  16956-3 0  9998,2 53836  53.2159 181.7379 0001346  95.3186 264.7960 15.08836202 99360,6917.892,95.438,540.688,538.826,0.0
53836.0,STARLINK-4778,PAYLOAD,2024-07-01 10:11:51,15.08839193,0.000137,53.2161,180.8456,94.3561,265.7588,0.0001985,2.873e-05,0.0,0 STARLINK-4778,1 53836U 22114U   24183.42490475  .00002873  00000-0  19850-3 0  9994,2 53836  53.2161 180.8456 0001370  94.3561 265.7588 15.08839193 99934,6917.883,95.438,540.696,538.8,0.0
53836.0,STARLINK-4778,PAYLOAD,2024-07-02 06:51:52,15.08838596,0.0001346,53.216,176.9795,93.2737,266.8409,8.5528e-05,1.073e-05,0.0,0 STARLINK-4778,1 53836U 22114U   24184.28602993  .00001073  00000-0  85528-4 0  9996,2 53836  53.2160 176.9795 0001346  93.2737 266.8409 15.08838596 99526,6917.885,95.438,540.681,538.819,0.0
53836.0,STARLINK-4778,PAYLOAD,2024-07-02 16:24:11,15.08838897,0.0001352,53.2163,175.1953,91.5668,268.5479,6.9986e-05,8.26e-06,0.0,0 STARLINK-4778,1 53836U 22114U   24184.68347011  .00000826  00000-0  69986-4 0  9992,2 53836  53.2163 175.1953 0001352  91.5668 268.5479 15.08838897100126,6917.884,95.438,540.684,538.813,0.0
